COSMOS 2251 DEB         
1 37093U 93036BFP 17345.59883736  .00001008  00000-0  17338-3 0  9996
2 37093  74.0210  66.9749 0165875 329.5542  29.6069 14.61491552283273
